[{"OBJECT_NAME":"KUIPER-00127","OBJECT_ID":"2025-228K","EPOCH":"2026-03-09T05:07:51.492288","MEAN_MOTION":14.76388152,"ECCENTRICITY":0.00012403,"INCLINATION":51.9017,"RA_OF_ASC_NODE":354.1221,"ARG_OF_PERICENTER":190.3744,"MEAN_ANOMALY":169.7192,"EPHEMERIS_TYPE":0,"CLASSIFICATION_TYPE":"U","NORAD_CAT_ID":65956,"ELEMENT_SET_NO":999,"REV_AT_EPOCH":2328,"BSTAR":0.00054618899,"MEAN_MOTION_DOT":3.617e-5,"MEAN_MOTION_DDOT":0},{"OBJECT_NAME":"CZ-6A DEB","OBJECT_ID":"2022-151ST","EPOCH":"2026-03-09T03:25:45.880032","MEAN_MOTION":14.58390972,"ECCENTRICITY":0.00923159,"INCLINATION":98.6225,"RA_OF_ASC_NODE":121.4968,"ARG_OF_PERICENTER":255.1718,"MEAN_ANOMALY":103.9239,"EPHEMERIS_TYPE":0,"CLASSIFICATION_TYPE":"U","NORAD_CAT_ID":54954,"ELEMENT_SET_NO":999,"REV_AT_EPOCH":17500,"BSTAR":0.0018568169,"MEAN_MOTION_DOT":9.08e-5,"MEAN_MOTION_DDOT":0}]
